NORAD_CAT_ID,OBJECT_NAME,OBJECT_TYPE,EPOCH,MEAN_MOTION,ECCENTRICITY,INCLINATION,RA_OF_ASC_NODE,ARG_OF_PERICENTER,MEAN_ANOMALY,BSTAR,MEAN_MOTION_DOT,MEAN_MOTION_DDOT,TLE_LINE0,TLE_LINE1,TLE_LINE2,SEMIMAJOR_AXIS,PERIOD,APOGEE,PERIGEE,DECAYED
53413.0,STARLINK-4500,PAYLOAD,2024-08-12 03:20:57,15.08857624,0.0001472,53.217,173.3736,126.7255,233.3873,7.4036e-05,8.91e-06,0.0,0 STARLINK-4500,1 53413U 22097AB  24225.13954900  .00000891  00000-0  74036-4 0  9994,2 53413  53.2170 173.3736 0001472 126.7255 233.3873 15.08857624111422,6917.827,95.436,540.71,538.673,0.0
53413.0,STARLINK-4500,PAYLOAD,2024-08-12 06:31:42,15.08865373,0.0001481,53.2166,172.7825,109.6721,250.4431,0.00016829,2.393e-05,0.0,0 STARLINK-4500,1 53413U 22097AB  24225.27201828  .00002393  00000-0  16829-3 0  9997,2 53413  53.2166 172.7825 0001481 109.6721 250.4431 15.08865373111449,6917.803,95.436,540.692,538.643,0.0
53413.0,STARLINK-4500,PAYLOAD,2024-08-13 03:11:45,15.08803921,0.0001638,53.2154,168.916,87.6805,272.4374,-0.00072364,-0.00011775,0.0,0 STARLINK-4500,1 53413U 22097AB  24226.13316902 -.00011775  00000-0 -72364-3 0  9995,2 53413  53.2154 168.9160 0001638  87.6805 272.4374 15.08803921111572,6917.991,95.44,540.989,538.723,0.0
53413.0,STARLINK-4500,PAYLOAD,2024-08-13 12:44:05,15.08796719,0.0001671,53.2161,167.1355,90.4951,269.6232,-0.00068438,-0.00011151,0.0,0 STARLINK-4500,1 53413U 22097AB  24226.53062327 -.00011151  00000-0 -68438-3 0  9993,2 53413  53.2161 167.1355 0001671  90.4951 269.6232 15.08796719112127,6918.013,95.44,541.034,538.722,0.0
53413.0,STARLINK-4500,PAYLOAD,2024-08-13 20:41:02,15.08798706,0.0001232,53.2156,165.6466,91.9674,268.1459,-0.00046367,-7.651e-05,0.0,0 STARLINK-4500,1 53413U 22097AB  24226.86183055 -.00007651  00000-0 -46367-3 0  9998,2 53413  53.2156 165.6466 0001232  91.9674 268.1459 15.08798706112176,6918.007,95.44,540.724,539.019,0.0
53413.0,STARLINK-4500,PAYLOAD,2024-08-14 03:02:34,15.08811871,0.0001411,53.2147,164.4577,85.8556,274.2598,-0.00018745,-3.268e-05,0.0,0 STARLINK-4500,1 53413U 22097AB  24227.12678969 -.00003268  00000-0 -18745-3 0  9990,2 53413  53.2147 164.4577 0001411  85.8556 274.2598 15.08811871111727,6917.966,95.439,540.807,538.855,0.0
53413.0,STARLINK-4500,PAYLOAD,2024-08-14 12:34:53,15.08824127,0.0001565,53.2153,162.6732,89.5307,270.5865,0.00020438,2.965e-05,0.0,0 STARLINK-4500,1 53413U 22097AB  24227.52422977  .00002965  00000-0  20438-3 0  9993,2 53413  53.2153 162.6732 0001565  89.5307 270.5865 15.08824127111782,6917.929,95.439,540.877,538.711,0.0
53413.0,STARLINK-4500,PAYLOAD,2024-08-15 02:53:21,15.0885332,0.0001613,53.2137,159.9921,69.2889,290.8276,0.0010207,0.00016,0.0,0 STARLINK-4500,1 53413U 22097AB  24228.12038879  .00016000  00000-0  10207-2 0  9991,2 53413  53.2137 159.9921 0001613  69.2889 290.8276 15.08853320111875,6917.84,95.437,540.821,538.589,0.0
53413.0,STARLINK-4500,PAYLOAD,2024-08-15 12:25:39,15.08864309,0.0001818,53.2152,158.2144,80.6661,279.4537,0.00068375,0.00010618,0.0,0 STARLINK-4500,1 53413U 22097AB  24228.51782400  .00010618  00000-0  68375-3 0  9999,2 53413  53.2152 158.2144 0001818  80.6661 279.4537 15.08864309112427,6917.806,95.436,540.929,538.413,0.0
53413.0,STARLINK-4500,PAYLOAD,2024-08-16 02:44:07,15.08872827,0.0001451,53.2142,155.5351,104.9382,255.1771,0.0005909,9.137e-05,0.0,0 STARLINK-4500,1 53413U 22097AB  24229.11397259  .00009137  00000-0  59090-3 0  9998,2 53413  53.2142 155.5351 0001451 104.9382 255.1771 15.08872827112020,6917.78,95.435,540.649,538.641,0.0
53413.0,STARLINK-4500,PAYLOAD,2024-08-17 04:10:17,15.08858957,0.0001289,53.2144,150.7769,84.922,275.192,0.00039797,6.055e-05,0.0,0 STARLINK-4500,1 53413U 22097AB  24230.17380812  .00006055  00000-0  39797-3 0  9991,2 53413  53.2144 150.7769 0001289  84.9220 275.1920 15.08858957112182,6917.822,95.436,540.579,538.796,0.0
53413.0,STARLINK-4500,PAYLOAD,2024-08-18 04:01:04,15.08849801,0.0001737,53.2151,146.3166,74.5397,285.5787,0.00063067,9.766e-05,0.0,0 STARLINK-4500,1 53413U 22097AB  24231.16741244  .00009766  00000-0  63067-3 0  9990,2 53413  53.2151 146.3166 0001737  74.5397 285.5787 15.08849801112331,6917.85,95.437,540.917,538.514,0.0
53413.0,STARLINK-4500,PAYLOAD,2024-08-18 21:30:19,15.08835476,0.0001272,53.2149,143.0466,101.3374,258.7761,0.00029703,4.442e-05,0.0,0 STARLINK-4500,1 53413U 22097AB  24231.89605619  .00004442  00000-0  29703-3 0  9990,2 53413  53.2149 143.0466 0001272 101.3374 258.7761 15.08835476112442,6917.894,95.438,540.639,538.879,0.0
53413.0,STARLINK-4500,PAYLOAD,2024-08-19 00:41:05,15.08835917,0.0001303,53.2153,142.4519,96.0877,264.0264,0.00090883,0.00014204,0.0,0 STARLINK-4500,1 53413U 22097AB  24232.02853910  .00014204  00000-0  90883-3 0  9999,2 53413  53.2153 142.4519 0001303  96.0877 264.0264 15.08835917112956,6917.893,95.438,540.659,538.856,0.0
53413.0,STARLINK-4500,PAYLOAD,2024-08-20 03:42:38,15.08854703,0.0001466,53.2156,137.3975,92.5133,267.6027,0.00066954,0.00010388,0.0,0 STARLINK-4500,1 53413U 22097AB  24233.15461765  .00010388  00000-0  66954-3 0  9998,2 53413  53.2156 137.3975 0001466  92.5133 267.6027 15.08854703112639,6917.835,95.437,540.715,538.686,0.0
53413.0,STARLINK-4500,PAYLOAD,2024-08-20 21:11:53,15.0884782,0.0001604,53.2157,134.1273,100.8731,259.2442,0.00025014,3.696e-05,0.0,0 STARLINK-4500,1 53413U 22097AB  24233.88325751  .00003696  00000-0  25014-3 0  9998,2 53413  53.2157 134.1273 0001604 100.8731 259.2442 15.08847820112749,6917.856,95.437,540.831,538.612,0.0
53413.0,STARLINK-4500,PAYLOAD,2024-08-20 22:47:16,15.0884823,0.0001681,53.2164,133.8306,103.5334,256.5845,0.00024104,3.551e-05,0.0,0 STARLINK-4500,1 53413U 22097AB  24233.94949704  .00003551  00000-0  24104-3 0  9994,2 53413  53.2164 133.8306 0001681 103.5334 256.5845 15.08848230113243,6917.855,95.437,540.883,538.557,0.0
53413.0,STARLINK-4500,PAYLOAD,2024-08-21 22:38:03,15.08838364,0.0001419,53.2163,129.3695,77.6991,282.416,1.1446e-05,-1.06e-06,0.0,0 STARLINK-4500,1 53413U 22097AB  24234.94310137 -.00000106  00000-0  11446-4 0  9997,2 53413  53.2163 129.3695 0001419  77.6991 282.4160 15.08838364112909,6917.885,95.438,540.732,538.769,0.0
